CCSDS_OMM_VERS = 2.0
CREATION_DATE  = 
ORIGINATOR     = 

OBJECT_NAME    = STARLINK-36318
OBJECT_ID      = 2026-041J
CENTER_NAME    = EARTH
REF_FRAME      = TEME
TIME_SYSTEM    = UTC
MEAN_ELEMENT_THEORY = SGP/SGP4

EPOCH          = 2026-03-23T23:21:02.492928
MEAN_MOTION    = 15.75285315
ECCENTRICITY   = .00009368
INCLINATION    = 53.1598
RA_OF_ASC_NODE = 350.8410
ARG_OF_PERICENTER = 74.3059
MEAN_ANOMALY   = 285.8064

EPHEMERIS_TYPE = 0
CLASSIFICATION_TYPE = U
NORAD_CAT_ID   = 68048
ELEMENT_SET_NO = 999
REV_AT_EPOCH   = 347
BSTAR          = .17846201E-2
MEAN_MOTION_DOT = .282841E-2
MEAN_MOTION_DDOT = 0

CCSDS_OMM_VERS = 2.0
CREATION_DATE  = 
ORIGINATOR     = 

OBJECT_NAME    = STARLINK-36885
OBJECT_ID      = 2026-041K
CENTER_NAME    = EARTH
REF_FRAME      = TEME
TIME_SYSTEM    = UTC
MEAN_ELEMENT_THEORY = SGP/SGP4

EPOCH          = 2026-03-23T23:20:33.994752
MEAN_MOTION    = 15.75250297
ECCENTRICITY   = .00012175
INCLINATION    = 53.1599
RA_OF_ASC_NODE = 350.8383
ARG_OF_PERICENTER = 49.9533
MEAN_ANOMALY   = 310.1594

EPHEMERIS_TYPE = 0
CLASSIFICATION_TYPE = U
NORAD_CAT_ID   = 68049
ELEMENT_SET_NO = 999
REV_AT_EPOCH   = 347
BSTAR          = .12150632E-2
MEAN_MOTION_DOT = .189949E-2
MEAN_MOTION_DDOT = 0

CCSDS_OMM_VERS = 2.0
CREATION_DATE  = 
ORIGINATOR     = 

OBJECT_NAME    = STARLINK-36945
OBJECT_ID      = 2026-041L
CENTER_NAME    = EARTH
REF_FRAME      = TEME
TIME_SYSTEM    = UTC
MEAN_ELEMENT_THEORY = SGP/SGP4

EPOCH          = 2026-03-23T22:36:40.889952
MEAN_MOTION    = 15.80914094
ECCENTRICITY   = .00011725
INCLINATION    = 53.1584
RA_OF_ASC_NODE = 350.6358
ARG_OF_PERICENTER = 18.2207
MEAN_ANOMALY   = 341.8857

EPHEMERIS_TYPE = 0
CLASSIFICATION_TYPE = U
NORAD_CAT_ID   = 68050
ELEMENT_SET_NO = 999
REV_AT_EPOCH   = 347
BSTAR          = .27115284E-2
MEAN_MOTION_DOT = .572625E-2
MEAN_MOTION_DDOT = 0

CCSDS_OMM_VERS = 2.0
CREATION_DATE  = 
ORIGINATOR     = 

OBJECT_NAME    = STARLINK-35911
OBJECT_ID      = 2026-041M
CENTER_NAME    = EARTH
REF_FRAME      = TEME
TIME_SYSTEM    = UTC
MEAN_ELEMENT_THEORY = SGP/SGP4

EPOCH          = 2026-03-23T22:34:31.183680
MEAN_MOTION    = 15.80907652
ECCENTRICITY   = .00011489
INCLINATION    = 53.1587
RA_OF_ASC_NODE = 350.6264
ARG_OF_PERICENTER = 31.8172
MEAN_ANOMALY   = 328.2920

EPHEMERIS_TYPE = 0
CLASSIFICATION_TYPE = U
NORAD_CAT_ID   = 68051
ELEMENT_SET_NO = 999
REV_AT_EPOCH   = 347
BSTAR          = .22488192E-2
MEAN_MOTION_DOT = .46887E-2
MEAN_MOTION_DDOT = 0

CCSDS_OMM_VERS = 2.0
CREATION_DATE  = 
ORIGINATOR     = 

OBJECT_NAME    = STARLINK-35808
OBJECT_ID      = 2026-041N
CENTER_NAME    = EARTH
REF_FRAME      = TEME
TIME_SYSTEM    = UTC
MEAN_ELEMENT_THEORY = SGP/SGP4

EPOCH          = 2026-03-23T22:00:00.999936
MEAN_MOTION    = 15.75170471
ECCENTRICITY   = .00008849
INCLINATION    = 53.1585
RA_OF_ASC_NODE = 350.8562
ARG_OF_PERICENTER = 80.2499
MEAN_ANOMALY   = 89.5597

EPHEMERIS_TYPE = 0
CLASSIFICATION_TYPE = U
NORAD_CAT_ID   = 68052
ELEMENT_SET_NO = 999
REV_AT_EPOCH   = 462
BSTAR          = -.19938808E-3
MEAN_MOTION_DOT = -.30998E-3
MEAN_MOTION_DDOT = 0

CCSDS_OMM_VERS = 2.0
CREATION_DATE  = 
ORIGINATOR     = 

OBJECT_NAME    = STARLINK-36919
OBJECT_ID      = 2026-041P
CENTER_NAME    = EARTH
REF_FRAME      = TEME
TIME_SYSTEM    = UTC
MEAN_ELEMENT_THEORY = SGP/SGP4

EPOCH          = 2026-03-23T22:32:21.186240
MEAN_MOTION    = 15.80934312
ECCENTRICITY   = .00010814
INCLINATION    = 53.1585
RA_OF_ASC_NODE = 350.6154
ARG_OF_PERICENTER = 45.1281
MEAN_ANOMALY   = 314.9829

EPHEMERIS_TYPE = 0
CLASSIFICATION_TYPE = U
NORAD_CAT_ID   = 68053
ELEMENT_SET_NO = 999
REV_AT_EPOCH   = 347
BSTAR          = .17791236E-2
MEAN_MOTION_DOT = .366814E-2
MEAN_MOTION_DDOT = 0

CCSDS_OMM_VERS = 2.0
CREATION_DATE  = 
ORIGINATOR     = 

OBJECT_NAME    = STARLINK-36924
OBJECT_ID      = 2026-041Q
CENTER_NAME    = EARTH
REF_FRAME      = TEME
TIME_SYSTEM    = UTC
MEAN_ELEMENT_THEORY = SGP/SGP4

EPOCH          = 2026-03-23T18:40:25.118400
MEAN_MOTION    = 15.75346357
ECCENTRICITY   = .00006139
INCLINATION    = 53.1596
RA_OF_ASC_NODE = 351.7569
ARG_OF_PERICENTER = 128.4581
MEAN_ANOMALY   = 231.6495

EPHEMERIS_TYPE = 0
CLASSIFICATION_TYPE = U
NORAD_CAT_ID   = 68054
ELEMENT_SET_NO = 999
REV_AT_EPOCH   = 344
BSTAR          = .22920364E-2
MEAN_MOTION_DOT = .368172E-2
MEAN_MOTION_DDOT = 0

CCSDS_OMM_VERS = 2.0
CREATION_DATE  = 
ORIGINATOR     = 

OBJECT_NAME    = STARLINK-35998
OBJECT_ID      = 2026-041R
CENTER_NAME    = EARTH
REF_FRAME      = TEME
TIME_SYSTEM    = UTC
MEAN_ELEMENT_THEORY = SGP/SGP4

EPOCH          = 2026-03-23T22:00:00.999936
MEAN_MOTION    = 15.75133327
ECCENTRICITY   = .00017192
INCLINATION    = 53.1590
RA_OF_ASC_NODE = 350.8000
ARG_OF_PERICENTER = 92.5840
MEAN_ANOMALY   = 104.6546

EPHEMERIS_TYPE = 0
CLASSIFICATION_TYPE = U
NORAD_CAT_ID   = 68055
ELEMENT_SET_NO = 999
REV_AT_EPOCH   = 462
BSTAR          = .59529808E-3
MEAN_MOTION_DOT = .9118E-3
MEAN_MOTION_DDOT = 0

CCSDS_OMM_VERS = 2.0
CREATION_DATE  = 
ORIGINATOR     = 

OBJECT_NAME    = STARLINK-36845
OBJECT_ID      = 2026-041S
CENTER_NAME    = EARTH
REF_FRAME      = TEME
TIME_SYSTEM    = UTC
MEAN_ELEMENT_THEORY = SGP/SGP4

EPOCH          = 2026-03-22T11:35:10.205664
MEAN_MOTION    = 15.81406518
ECCENTRICITY   = .00008155
INCLINATION    = 53.1588
RA_OF_ASC_NODE = 357.8865
ARG_OF_PERICENTER = 106.6832
MEAN_ANOMALY   = 253.4281

EPHEMERIS_TYPE = 0
CLASSIFICATION_TYPE = U
NORAD_CAT_ID   = 68056
ELEMENT_SET_NO = 999
REV_AT_EPOCH   = 324
BSTAR          = .33360186E-2
MEAN_MOTION_DOT = .734806E-2
MEAN_MOTION_DDOT = 0

CCSDS_OMM_VERS = 2.0
CREATION_DATE  = 
ORIGINATOR     = 

OBJECT_NAME    = STARLINK-36954
OBJECT_ID      = 2026-041T
CENTER_NAME    = EARTH
REF_FRAME      = TEME
TIME_SYSTEM    = UTC
MEAN_ELEMENT_THEORY = SGP/SGP4

EPOCH          = 2026-03-23T23:14:02.750496
MEAN_MOTION    = 15.75200562
ECCENTRICITY   = .00010667
INCLINATION    = 53.1599
RA_OF_ASC_NODE = 350.8080
ARG_OF_PERICENTER = 147.3474
MEAN_ANOMALY   = 212.7612

EPHEMERIS_TYPE = 0
CLASSIFICATION_TYPE = U
NORAD_CAT_ID   = 68057
ELEMENT_SET_NO = 999
REV_AT_EPOCH   = 347
BSTAR          = .18773642E-2
MEAN_MOTION_DOT = .296977E-2
MEAN_MOTION_DDOT = 0

CCSDS_OMM_VERS = 2.0
CREATION_DATE  = 
ORIGINATOR     = 

OBJECT_NAME    = STARLINK-36899
OBJECT_ID      = 2026-041U
CENTER_NAME    = EARTH
REF_FRAME      = TEME
TIME_SYSTEM    = UTC
MEAN_ELEMENT_THEORY = SGP/SGP4

EPOCH          = 2026-03-23T23:07:58.243584
MEAN_MOTION    = 15.75281789
ECCENTRICITY   = .00018115
INCLINATION    = 53.1594
RA_OF_ASC_NODE = 350.7801
ARG_OF_PERICENTER = 144.5354
MEAN_ANOMALY   = 215.5787

EPHEMERIS_TYPE = 0
CLASSIFICATION_TYPE = U
NORAD_CAT_ID   = 68058
ELEMENT_SET_NO = 999
REV_AT_EPOCH   = 347
BSTAR          = .16025758E-2
MEAN_MOTION_DOT = .252976E-2
MEAN_MOTION_DDOT = 0

CCSDS_OMM_VERS = 2.0
CREATION_DATE  = 
ORIGINATOR     = 

OBJECT_NAME    = STARLINK-36917
OBJECT_ID      = 2026-041V
CENTER_NAME    = EARTH
REF_FRAME      = TEME
TIME_SYSTEM    = UTC
MEAN_ELEMENT_THEORY = SGP/SGP4

EPOCH          = 2026-03-23T10:43:30.989280
MEAN_MOTION    = 15.75342586
ECCENTRICITY   = .00021828
INCLINATION    = 53.1583
RA_OF_ASC_NODE = 353.2397
ARG_OF_PERICENTER = 53.5811
MEAN_ANOMALY   = 306.5410

EPHEMERIS_TYPE = 0
CLASSIFICATION_TYPE = U
NORAD_CAT_ID   = 68059
ELEMENT_SET_NO = 999
REV_AT_EPOCH   = 339
BSTAR          = .23279794E-2
MEAN_MOTION_DOT = .374136E-2
MEAN_MOTION_DDOT = 0

