STARLINK-36318          
1 68048U 26041J   26082.97294552  .00282841  00000+0  17846-2 0  9992
2 68048  53.1598 350.8410 0000936  74.3059 285.8064 15.75285315  3475
STARLINK-36885          
1 68049U 26041K   26082.97261568  .00189949  00000+0  12151-2 0  9993
2 68049  53.1599 350.8383 0001217  49.9533 310.1594 15.75250297  3475
STARLINK-36945          
1 68050U 26041L   26082.94213993  .00572625  00000+0  27115-2 0  9994
2 68050  53.1584 350.6358 0001172  18.2207 341.8857 15.80914094  3479
STARLINK-35911          
1 68051U 26041M   26082.94063870  .00468870  00000+0  22488-2 0  9996
2 68051  53.1587 350.6264 0001148  31.8172 328.2920 15.80907652  3476
STARLINK-35808          
1 68052U 26041N   26082.91667824 -.00030998  00000+0 -19939-3 0  9999
2 68052  53.1585 350.8562 0000884  80.2499  89.5597 15.75170471  4624
STARLINK-36919          
1 68053U 26041P   26082.93913410  .00366814  00000+0  17791-2 0  9997
2 68053  53.1585 350.6154 0001081  45.1281 314.9829 15.80934312  3472
STARLINK-36924          
1 68054U 26041Q   26082.77806850  .00368172  00000+0  22920-2 0  9998
2 68054  53.1596 351.7569 0000613 128.4581 231.6495 15.75346357  3446
STARLINK-35998          
1 68055U 26041R   26082.91667824  .00091180  00000+0  59530-3 0  9991
2 68055  53.1590 350.8000 0001719  92.5840 104.6546 15.75133327  4626
STARLINK-36845          
1 68056U 26041S   26081.48275701  .00734806  00000+0  33360-2 0  9993
2 68056  53.1588 357.8865 0000815 106.6832 253.4281 15.81406518  3242
STARLINK-36954          
1 68057U 26041T   26082.96808739  .00296977  00000+0  18774-2 0  9995
2 68057  53.1599 350.8080 0001066 147.3474 212.7612 15.75200562  3475
STARLINK-36899          
1 68058U 26041U   26082.96386856  .00252976  00000+0  16026-2 0  9996
2 68058  53.1594 350.7801 0001811 144.5354 215.5787 15.75281789  3479
STARLINK-36917          
1 68059U 26041V   26082.44688645  .00374136  00000+0  23280-2 0  9994
2 68059  53.1583 353.2397 0002182  53.5811 306.5410 15.75342586  3393
